ATLAS CENTAUR R/B       
1 06155U 72065B   26079.16623323  .00001135  00000+0  15778-3 0  9997
2 06155  35.0005 244.3554 0032867  98.3193 262.1236 14.77715064842815
SL-8 R/B                
1 08459U 75112B   26079.21518951  .00000205  00000+0  75868-4 0  9992
2 08459  74.0637 359.5516 0014446  88.3767 271.9042 14.38209573633387
SL-3 R/B                
1 10114U 77057B   26079.20684467  .00009518  00000+0  19846-3 0  9997
2 10114  97.5782 251.5939 0006288 240.2176 119.8448 15.45776082669952
SEASAT 1                
1 10967U 78064A   26079.14860528  .00000179  00000+0  88390-4 0  9994
2 10967 108.0088 147.4458 0002503 281.1306  78.9558 14.46168310508025
SL-14 R/B               
1 11267U 79011B   26079.11041087  .00000555  00000+0  52190-4 0  9996
2 11267  82.5204  86.6794 0016740  27.9850 332.2266 14.91920679530335
SL-8 R/B                
1 11574U 79089B   26079.28811175  .00000171  00000+0  59748-4 0  9993
2 11574  74.0673  71.4224 0016977 242.9355 117.0070 14.42356812437632
SL-14 R/B               
1 11672U 80005B   26079.06318355  .00000479  00000+0  45834-4 0  9992
2 11672  82.5125 297.3950 0016942 125.6222 234.6578 14.90941506478035
SL-8 R/B                
1 12139U 81003B   26078.99953647  .00017956  00000+0  45513-3 0  9991
2 12139  82.9357 280.4886 0261431 142.7040 219.2671 15.11391095316231
SL-3 R/B                
1 12465U 81046B   26079.23108563  .00007834  00000+0  18054-3 0  9991
2 12465  81.2279 277.0820 0018733 345.4337  14.6363 15.42236399440056
SL-3 R/B                
1 12904U 81103B   26079.29509641  .00004255  00000+0  18773-3 0  9993
2 12904  81.1605 200.9912 0012426 248.3544 111.6365 15.21494455974842
SL-3 R/B                
1 13068U 82013B   26079.23309392  .00002841  00000+0  12203-3 0  9992
2 13068  81.1750 148.4138 0023211 142.4970 217.7887 15.22109081405959
SL-3 R/B                
1 13154U 82039B   26079.25848646  .00001931  00000+0  11590-3 0  9995
2 13154  81.1579 203.7763 0029198 289.7825  70.0253 15.10136144383237
