CCSDS_OMM_VERS = 2.0
CREATION_DATE  = 
ORIGINATOR     = 

OBJECT_NAME    = ATLAS CENTAUR R/B
OBJECT_ID      = 1972-065B
CENTER_NAME    = EARTH
REF_FRAME      = TEME
TIME_SYSTEM    = UTC
MEAN_ELEMENT_THEORY = SGP/SGP4

EPOCH          = 2026-03-20T03:59:22.551072
MEAN_MOTION    = 14.77715064
ECCENTRICITY   = .00328675
INCLINATION    = 35.0005
RA_OF_ASC_NODE = 244.3554
ARG_OF_PERICENTER = 98.3193
MEAN_ANOMALY   = 262.1236

EPHEMERIS_TYPE = 0
CLASSIFICATION_TYPE = U
NORAD_CAT_ID   = 6155
ELEMENT_SET_NO = 999
REV_AT_EPOCH   = 84281
BSTAR          = .15777825E-3
MEAN_MOTION_DOT = .1135E-4
MEAN_MOTION_DDOT = 0

CCSDS_OMM_VERS = 2.0
CREATION_DATE  = 
ORIGINATOR     = 

OBJECT_NAME    = SL-8 R/B
OBJECT_ID      = 1975-112B
CENTER_NAME    = EARTH
REF_FRAME      = TEME
TIME_SYSTEM    = UTC
MEAN_ELEMENT_THEORY = SGP/SGP4

EPOCH          = 2026-03-20T05:09:52.373664
MEAN_MOTION    = 14.38209573
ECCENTRICITY   = .00144466
INCLINATION    = 74.0637
RA_OF_ASC_NODE = 359.5516
ARG_OF_PERICENTER = 88.3767
MEAN_ANOMALY   = 271.9042

EPHEMERIS_TYPE = 0
CLASSIFICATION_TYPE = U
NORAD_CAT_ID   = 8459
ELEMENT_SET_NO = 999
REV_AT_EPOCH   = 63338
BSTAR          = .75868043E-4
MEAN_MOTION_DOT = .205E-5
MEAN_MOTION_DDOT = 0

CCSDS_OMM_VERS = 2.0
CREATION_DATE  = 
ORIGINATOR     = 

OBJECT_NAME    = SL-3 R/B
OBJECT_ID      = 1977-057B
CENTER_NAME    = EARTH
REF_FRAME      = TEME
TIME_SYSTEM    = UTC
MEAN_ELEMENT_THEORY = SGP/SGP4

EPOCH          = 2026-03-20T04:57:51.379488
MEAN_MOTION    = 15.45776082
ECCENTRICITY   = .00062887
INCLINATION    = 97.5782
RA_OF_ASC_NODE = 251.5939
ARG_OF_PERICENTER = 240.2176
MEAN_ANOMALY   = 119.8448

EPHEMERIS_TYPE = 0
CLASSIFICATION_TYPE = U
NORAD_CAT_ID   = 10114
ELEMENT_SET_NO = 999
REV_AT_EPOCH   = 66995
BSTAR          = .19845541E-3
MEAN_MOTION_DOT = .9518E-4
MEAN_MOTION_DDOT = 0

CCSDS_OMM_VERS = 2.0
CREATION_DATE  = 
ORIGINATOR     = 

OBJECT_NAME    = SEASAT 1
OBJECT_ID      = 1978-064A
CENTER_NAME    = EARTH
REF_FRAME      = TEME
TIME_SYSTEM    = UTC
MEAN_ELEMENT_THEORY = SGP/SGP4

EPOCH          = 2026-03-20T03:33:59.496192
MEAN_MOTION    = 14.46168310
ECCENTRICITY   = .00025031
INCLINATION    = 108.0088
RA_OF_ASC_NODE = 147.4458
ARG_OF_PERICENTER = 281.1306
MEAN_ANOMALY   = 78.9558

EPHEMERIS_TYPE = 0
CLASSIFICATION_TYPE = U
NORAD_CAT_ID   = 10967
ELEMENT_SET_NO = 999
REV_AT_EPOCH   = 50802
BSTAR          = .88390409E-4
MEAN_MOTION_DOT = .179E-5
MEAN_MOTION_DDOT = 0

CCSDS_OMM_VERS = 2.0
CREATION_DATE  = 
ORIGINATOR     = 

OBJECT_NAME    = SL-14 R/B
OBJECT_ID      = 1979-011B
CENTER_NAME    = EARTH
REF_FRAME      = TEME
TIME_SYSTEM    = UTC
MEAN_ELEMENT_THEORY = SGP/SGP4

EPOCH          = 2026-03-20T02:38:59.499168
MEAN_MOTION    = 14.91920679
ECCENTRICITY   = .00167403
INCLINATION    = 82.5204
RA_OF_ASC_NODE = 86.6794
ARG_OF_PERICENTER = 27.9850
MEAN_ANOMALY   = 332.2266

EPHEMERIS_TYPE = 0
CLASSIFICATION_TYPE = U
NORAD_CAT_ID   = 11267
ELEMENT_SET_NO = 999
REV_AT_EPOCH   = 53033
BSTAR          = .52190354E-4
MEAN_MOTION_DOT = .555E-5
MEAN_MOTION_DDOT = 0

CCSDS_OMM_VERS = 2.0
CREATION_DATE  = 
ORIGINATOR     = 

OBJECT_NAME    = SL-8 R/B
OBJECT_ID      = 1979-089B
CENTER_NAME    = EARTH
REF_FRAME      = TEME
TIME_SYSTEM    = UTC
MEAN_ELEMENT_THEORY = SGP/SGP4

EPOCH          = 2026-03-20T06:54:52.855200
MEAN_MOTION    = 14.42356812
ECCENTRICITY   = .00169772
INCLINATION    = 74.0673
RA_OF_ASC_NODE = 71.4224
ARG_OF_PERICENTER = 242.9355
MEAN_ANOMALY   = 117.0070

EPHEMERIS_TYPE = 0
CLASSIFICATION_TYPE = U
NORAD_CAT_ID   = 11574
ELEMENT_SET_NO = 999
REV_AT_EPOCH   = 43763
BSTAR          = .59747531E-4
MEAN_MOTION_DOT = .171E-5
MEAN_MOTION_DDOT = 0

CCSDS_OMM_VERS = 2.0
CREATION_DATE  = 
ORIGINATOR     = 

OBJECT_NAME    = SL-14 R/B
OBJECT_ID      = 1980-005B
CENTER_NAME    = EARTH
REF_FRAME      = TEME
TIME_SYSTEM    = UTC
MEAN_ELEMENT_THEORY = SGP/SGP4

EPOCH          = 2026-03-20T01:30:59.058720
MEAN_MOTION    = 14.90941506
ECCENTRICITY   = .0016942
INCLINATION    = 82.5125
RA_OF_ASC_NODE = 297.3950
ARG_OF_PERICENTER = 125.6222
MEAN_ANOMALY   = 234.6578

EPHEMERIS_TYPE = 0
CLASSIFICATION_TYPE = U
NORAD_CAT_ID   = 11672
ELEMENT_SET_NO = 999
REV_AT_EPOCH   = 47803
BSTAR          = .45833603E-4
MEAN_MOTION_DOT = .479E-5
MEAN_MOTION_DDOT = 0

CCSDS_OMM_VERS = 2.0
CREATION_DATE  = 
ORIGINATOR     = 

OBJECT_NAME    = SL-8 R/B
OBJECT_ID      = 1981-003B
CENTER_NAME    = EARTH
REF_FRAME      = TEME
TIME_SYSTEM    = UTC
MEAN_ELEMENT_THEORY = SGP/SGP4

EPOCH          = 2026-03-19T23:59:19.951008
MEAN_MOTION    = 15.11391095
ECCENTRICITY   = .02614312
INCLINATION    = 82.9357
RA_OF_ASC_NODE = 280.4886
ARG_OF_PERICENTER = 142.7040
MEAN_ANOMALY   = 219.2671

EPHEMERIS_TYPE = 0
CLASSIFICATION_TYPE = U
NORAD_CAT_ID   = 12139
ELEMENT_SET_NO = 999
REV_AT_EPOCH   = 31623
BSTAR          = .45513345E-3
MEAN_MOTION_DOT = .17956E-3
MEAN_MOTION_DDOT = 0

CCSDS_OMM_VERS = 2.0
CREATION_DATE  = 
ORIGINATOR     = 

OBJECT_NAME    = SL-3 R/B
OBJECT_ID      = 1981-046B
CENTER_NAME    = EARTH
REF_FRAME      = TEME
TIME_SYSTEM    = UTC
MEAN_ELEMENT_THEORY = SGP/SGP4

EPOCH          = 2026-03-20T05:32:45.798432
MEAN_MOTION    = 15.42236399
ECCENTRICITY   = .00187332
INCLINATION    = 81.2279
RA_OF_ASC_NODE = 277.0820
ARG_OF_PERICENTER = 345.4337
MEAN_ANOMALY   = 14.6363

EPHEMERIS_TYPE = 0
CLASSIFICATION_TYPE = U
NORAD_CAT_ID   = 12465
ELEMENT_SET_NO = 999
REV_AT_EPOCH   = 44005
BSTAR          = .18053771E-3
MEAN_MOTION_DOT = .7834E-4
MEAN_MOTION_DDOT = 0

CCSDS_OMM_VERS = 2.0
CREATION_DATE  = 
ORIGINATOR     = 

OBJECT_NAME    = SL-3 R/B
OBJECT_ID      = 1981-103B
CENTER_NAME    = EARTH
REF_FRAME      = TEME
TIME_SYSTEM    = UTC
MEAN_ELEMENT_THEORY = SGP/SGP4

EPOCH          = 2026-03-20T07:04:56.329824
MEAN_MOTION    = 15.21494455
ECCENTRICITY   = .00124269
INCLINATION    = 81.1605
RA_OF_ASC_NODE = 200.9912
ARG_OF_PERICENTER = 248.3544
MEAN_ANOMALY   = 111.6365

EPHEMERIS_TYPE = 0
CLASSIFICATION_TYPE = U
NORAD_CAT_ID   = 12904
ELEMENT_SET_NO = 999
REV_AT_EPOCH   = 97484
BSTAR          = .18772829E-3
MEAN_MOTION_DOT = .4255E-4
MEAN_MOTION_DDOT = 0

CCSDS_OMM_VERS = 2.0
CREATION_DATE  = 
ORIGINATOR     = 

OBJECT_NAME    = SL-3 R/B
OBJECT_ID      = 1982-013B
CENTER_NAME    = EARTH
REF_FRAME      = TEME
TIME_SYSTEM    = UTC
MEAN_ELEMENT_THEORY = SGP/SGP4

EPOCH          = 2026-03-20T05:35:39.314688
MEAN_MOTION    = 15.22109081
ECCENTRICITY   = .00232111
INCLINATION    = 81.1750
RA_OF_ASC_NODE = 148.4138
ARG_OF_PERICENTER = 142.4970
MEAN_ANOMALY   = 217.7887

EPHEMERIS_TYPE = 0
CLASSIFICATION_TYPE = U
NORAD_CAT_ID   = 13068
ELEMENT_SET_NO = 999
REV_AT_EPOCH   = 40595
BSTAR          = .12203333E-3
MEAN_MOTION_DOT = .2841E-4
MEAN_MOTION_DDOT = 0

CCSDS_OMM_VERS = 2.0
CREATION_DATE  = 
ORIGINATOR     = 

OBJECT_NAME    = SL-3 R/B
OBJECT_ID      = 1982-039B
CENTER_NAME    = EARTH
REF_FRAME      = TEME
TIME_SYSTEM    = UTC
MEAN_ELEMENT_THEORY = SGP/SGP4

EPOCH          = 2026-03-20T06:12:13.230144
MEAN_MOTION    = 15.10136144
ECCENTRICITY   = .00291986
INCLINATION    = 81.1579
RA_OF_ASC_NODE = 203.7763
ARG_OF_PERICENTER = 289.7825
MEAN_ANOMALY   = 70.0253

EPHEMERIS_TYPE = 0
CLASSIFICATION_TYPE = U
NORAD_CAT_ID   = 13154
ELEMENT_SET_NO = 999
REV_AT_EPOCH   = 38323
BSTAR          = .11589681E-3
MEAN_MOTION_DOT = .1931E-4
MEAN_MOTION_DDOT = 0

